{
  "type": "FeatureCollection",
  "features": [
    {
      "type": "Feature",
      "properties": {
        "norad_id": 42988,
        "name": "SKYSAT-C10",
        "group": "resource",
        "lat": 77.82904183900627,
        "lon": -28.46371734307274,
        "alt_km": 459.1705731430302,
        "timestamp": "2025-12-09T11:33:54.457947+00:00",
        "meta_object_name": "SKYSAT-C10",
        "meta_object_id": "2017-068B",
        "meta_epoch": "2025-12-08T21:01:23.007936",
        "meta_mean_motion": 15.3193243,
        "meta_eccentricity": 0.0005317,
        "meta_inclination": 97.4262,
        "meta_ra_of_asc_node": 113.7169,
        "meta_arg_of_pericenter": 114.4786,
        "meta_mean_anomaly": 245.701,
        "meta_ephemeris_type": 0,
        "meta_classification_type": "U",
        "meta_norad_cat_id": 42988,
        "meta_element_set_no": 999,
        "meta_rev_at_epoch": 45320,
        "meta_bstar": 0.00042536,
        "meta_mean_motion_dot": 0.00013049,
        "meta_mean_motion_ddot": 0,
        "tle_line1": "1 42988U 17068B   25342.87596074  .00013049  00000+0  42536-3 0  9994",
        "tle_line2": "2 42988  97.4262 113.7169 0005317 114.4786 245.7010 15.31932430453202"
      },
      "geometry": {
        "type": "Point",
        "coordinates": [
          -28.46371734307274,
          77.82904183900627
        ]
      }
    },
    {
      "type": "Feature",
      "properties": {
        "norad_id": 42989,
        "name": "SKYSAT-C9",
        "group": "resource",
        "lat": -78.11584448599889,
        "lon": -104.54842943248428,
        "alt_km": 472.528873133504,
        "timestamp": "2025-12-09T11:33:54.457957+00:00",
        "meta_object_name": "SKYSAT-C9",
        "meta_object_id": "2017-068C",
        "meta_epoch": "2025-12-08T21:55:31.130400",
        "meta_mean_motion": 15.35898767,
        "meta_eccentricity": 0.0010689,
        "meta_inclination": 97.4192,
        "meta_ra_of_asc_node": 113.1378,
        "meta_arg_of_pericenter": 99.9963,
        "meta_mean_anomaly": 260.2487,
        "meta_ephemeris_type": 0,
        "meta_classification_type": "U",
        "meta_norad_cat_id": 42989,
        "meta_element_set_no": 999,
        "meta_rev_at_epoch": 45349,
        "meta_bstar": 0.00048708,
        "meta_mean_motion_dot": 0.00016985,
        "meta_mean_motion_ddot": 0,
        "tle_line1": "1 42989U 17068C   25342.91355475  .00016985  00000+0  48708-3 0  9997",
        "tle_line2": "2 42989  97.4192 113.1378 0010689  99.9963 260.2487 15.35898767453492"
      },
      "geometry": {
        "type": "Point",
        "coordinates": [
          -104.54842943248428,
          -78.11584448599889
        ]
      }
    },
    {
      "type": "Feature",
      "properties": {
        "norad_id": 42990,
        "name": "SKYSAT-C8",
        "group": "resource",
        "lat": -82.30271275113857,
        "lon": -141.40092983464095,
        "alt_km": 474.9171060600456,
        "timestamp": "2025-12-09T11:33:54.457967+00:00",
        "meta_object_name": "SKYSAT-C8",
        "meta_object_id": "2017-068D",
        "meta_epoch": "2025-12-09T02:33:55.313280",
        "meta_mean_motion": 15.3279316,
        "meta_eccentricity": 0.0001835,
        "meta_inclination": 97.4283,
        "meta_ra_of_asc_node": 113.0919,
        "meta_arg_of_pericenter": 3.7503,
        "meta_mean_anomaly": 356.3752,
        "meta_ephemeris_type": 0,
        "meta_classification_type": "U",
        "meta_norad_cat_id": 42990,
        "meta_element_set_no": 999,
        "meta_rev_at_epoch": 45315,
        "meta_bstar": 0.00044914,
        "meta_mean_motion_dot": 0.00014157,
        "meta_mean_motion_ddot": 0,
        "tle_line1": "1 42990U 17068D   25343.10689020  .00014157  00000+0  44914-3 0  9991",
        "tle_line2": "2 42990  97.4283 113.0919 0001835   3.7503 356.3752 15.32793160453154"
      },
      "geometry": {
        "type": "Point",
        "coordinates": [
          -141.40092983464095,
          -82.30271275113857
        ]
      }
    },
    {
      "type": "Feature",
      "properties": {
        "norad_id": 42991,
        "name": "SKYSAT-C7",
        "group": "resource",
        "lat": 48.89504278622415,
        "lon": -56.88691621227038,
        "alt_km": 462.47539429333483,
        "timestamp": "2025-12-09T11:33:54.457977+00:00",
        "meta_object_name": "SKYSAT-C7",
        "meta_object_id": "2017-068E",
        "meta_epoch": "2025-12-08T22:27:33.304032",
        "meta_mean_motion": 15.32194774,
        "meta_eccentricity": 0.0007802,
        "meta_inclination": 97.429,
        "meta_ra_of_asc_node": 113.9644,
        "meta_arg_of_pericenter": 68.9849,
        "meta_mean_anomaly": 291.2226,
        "meta_ephemeris_type": 0,
        "meta_classification_type": "U",
        "meta_norad_cat_id": 42991,
        "meta_element_set_no": 999,
        "meta_rev_at_epoch": 45319,
        "meta_bstar": 0.0004292,
        "meta_mean_motion_dot": 0.00013283,
        "meta_mean_motion_ddot": 0,
        "tle_line1": "1 42991U 17068E   25342.93580213  .00013283  00000+0  42920-3 0  9990",
        "tle_line2": "2 42991  97.4290 113.9644 0007802  68.9849 291.2226 15.32194774453196"
      },
      "geometry": {
        "type": "Point",
        "coordinates": [
          -56.88691621227038,
          48.89504278622415
        ]
      }
    },
    {
      "type": "Feature",
      "properties": {
        "norad_id": 42992,
        "name": "SKYSAT-C6",
        "group": "resource",
        "lat": -75.16988017577258,
        "lon": -94.58731320531746,
        "alt_km": 482.513651764777,
        "timestamp": "2025-12-09T11:33:54.457987+00:00",
        "meta_object_name": "SKYSAT-C6",
        "meta_object_id": "2017-068F",
        "meta_epoch": "2025-12-09T02:36:17.449056",
        "meta_mean_motion": 15.31369264,
        "meta_eccentricity": 0.0005233,
        "meta_inclination": 97.4324,
        "meta_ra_of_asc_node": 114.5791,
        "meta_arg_of_pericenter": 92.6105,
        "meta_mean_anomaly": 267.5736,
        "meta_ephemeris_type": 0,
        "meta_classification_type": "U",
        "meta_norad_cat_id": 42992,
        "meta_element_set_no": 999,
        "meta_rev_at_epoch": 45320,
        "meta_bstar": 0.00044253,
        "meta_mean_motion_dot": 0.00013343,
        "meta_mean_motion_ddot": 0,
        "tle_line1": "1 42992U 17068F   25343.10853529  .00013343  00000+0  44253-3 0  9992",
        "tle_line2": "2 42992  97.4324 114.5791 0005233  92.6105 267.5736 15.31369264453201"
      },
      "geometry": {
        "type": "Point",
        "coordinates": [
          -94.58731320531746,
          -75.16988017577258
        ]
      }
    },
    {
      "type": "Feature",
      "properties": {
        "norad_id": 43111,
        "name": "CARTOSAT-2F",
        "group": "resource",
        "lat": 33.37991744477367,
        "lon": -133.89458265621354,
        "alt_km": 505.75695509714114,
        "timestamp": "2025-12-09T11:33:54.457997+00:00",
        "meta_object_name": "CARTOSAT-2F",
        "meta_object_id": "2018-004A",
        "meta_epoch": "2025-12-09T04:36:02.276064",
        "meta_mean_motion": 15.19215809,
        "meta_eccentricity": 6.53e-05,
        "meta_inclination": 97.4314,
        "meta_ra_of_asc_node": 40.8864,
        "meta_arg_of_pericenter": 144.7184,
        "meta_mean_anomaly": 215.4094,
        "meta_ephemeris_type": 0,
        "meta_classification_type": "U",
        "meta_norad_cat_id": 43111,
        "meta_element_set_no": 999,
        "meta_rev_at_epoch": 43848,
        "meta_bstar": 0.00024396,
        "meta_mean_motion_dot": 5.069e-05,
        "meta_mean_motion_ddot": 0,
        "tle_line1": "1 43111U 18004A   25343.19169301  .00005069  00000+0  24396-3 0  9996",
        "tle_line2": "2 43111  97.4314  40.8864 0000653 144.7184 215.4094 15.19215809438486"
      },
      "geometry": {
        "type": "Point",
        "coordinates": [
          -133.89458265621354,
          33.37991744477367
        ]
      }
    },
    {
      "type": "Feature",
      "properties": {
        "norad_id": 43259,
        "name": "GAOFEN-1 02",
        "group": "resource",
        "lat": 52.73661485360312,
        "lon": 30.50709236383701,
        "alt_km": 636.5673012380994,
        "timestamp": "2025-12-09T11:33:54.458007+00:00",
        "meta_object_name": "GAOFEN-1 02",
        "meta_object_id": "2018-031A",
        "meta_epoch": "2025-12-09T04:49:03.628416",
        "meta_mean_motion": 14.76469621,
        "meta_eccentricity": 0.0001453,
        "meta_inclination": 98.0807,
        "meta_ra_of_asc_node": 40.9887,
        "meta_arg_of_pericenter": 225.2915,
        "meta_mean_anomaly": 134.8176,
        "meta_ephemeris_type": 0,
        "meta_classification_type": "U",
        "meta_norad_cat_id": 43259,
        "meta_element_set_no": 999,
        "meta_rev_at_epoch": 41466,
        "meta_bstar": 0.00024408,
        "meta_mean_motion_dot": 1.647e-05,
        "meta_mean_motion_ddot": 0,
        "tle_line1": "1 43259U 18031A   25343.20073644  .00001647  00000+0  24408-3 0  9997",
        "tle_line2": "2 43259  98.0807  40.9887 0001453 225.2915 134.8176 14.76469621414669"
      },
      "geometry": {
        "type": "Point",
        "coordinates": [
          30.50709236383701,
          52.73661485360312
        ]
      }
    }
  ]
}